NORAD_CAT_ID,OBJECT_NAME,OBJECT_TYPE,EPOCH,MEAN_MOTION,ECCENTRICITY,INCLINATION,RA_OF_ASC_NODE,ARG_OF_PERICENTER,MEAN_ANOMALY,BSTAR,MEAN_MOTION_DOT,MEAN_MOTION_DDOT,TLE_LINE0,TLE_LINE1,TLE_LINE2,SEMIMAJOR_AXIS,PERIOD,APOGEE,PERIGEE,DECAYED
51128.0,STARLINK-3400,PAYLOAD,2022-08-15 14:06:07,15.0885107,0.0001605,53.2173,24.4993,63.1837,296.9319,0.00056497,8.718e-05,0.0,0 STARLINK-3400,1 51128U 22005AA  22227.58758667  .00008718  00000-0  56497-3 0  9991,2 51128  53.2173  24.4993 0001605  63.1837 296.9319 15.08851070 32156,6917.847,95.437,540.822,538.601,0.0
51128.0,STARLINK-3400,PAYLOAD,2022-08-15 22:03:03,15.08839159,0.0001538,53.2175,23.0126,61.108,299.0066,4.04e-05,3.55e-06,0.0,0 STARLINK-3400,1 51128U 22005AA  22227.91878859  .00000355  00000-0  40400-4 0  9991,2 51128  53.2175  23.0126 0001538  61.1080 299.0066 15.08839159 33321,6917.8830000000025,95.438,540.812,538.684,0.0
51128.0,STARLINK-3400,PAYLOAD,2022-08-16 12:21:31,15.08847416,0.0001575999999999,53.2173,20.3367,62.3696,297.7455,0.00022416,3.282e-05,0.0,0 STARLINK-3400,1 51128U 22005AA  22228.51494628  .00003282  00000-0  22416-3 0  9994,2 51128  53.2173  20.3367 0001576  62.3696 297.7455 15.08847416 32291,6917.858,95.437,540.813,538.632,0.0
51128.0,STARLINK-3400,PAYLOAD,2022-08-16 17:07:40,15.08843926,0.0001706999999999,53.2171,19.4444,63.75100000000001,296.3657,0.00014235,1.978e-05,0.0,0 STARLINK-3400,1 51128U 22005AA  22228.71366434  .00001978  00000-0  14235-3 0  9999,2 51128  53.2171  19.4444 0001707  63.7510 296.3657 15.08843926 32325,6917.868,95.437,540.914,538.553,0.0
51128.0,STARLINK-3400,PAYLOAD,2022-08-17 09:01:32,15.08836394,0.0001621999999999,53.2171,16.4711,62.9769,297.1389,-2.2279e-05,-6.43e-06,0.0,0 STARLINK-3400,1 51128U 22005AA  22229.37607056 -.00000643  00000-0 -22279-4 0  9998,2 51128  53.2171  16.4711 0001622  62.9769 297.1389 15.08836394 33549,6917.891,95.438,540.878,538.634,0.0
51128.0,STARLINK-3400,PAYLOAD,2022-08-18 12:03:05,15.08839602,0.0001556,53.2171,11.4165,62.7126,297.4024,6.1472e-05,6.900000000000003e-06,0.0,0 STARLINK-3400,1 51128U 22005AA  22230.50214963  .00000690  00000-0  61472-4 0  9994,2 51128  53.2171  11.4165 0001556  62.7126 297.4024 15.08839602 32596,6917.882,95.438,540.823,538.67,0.0
51128.0,STARLINK-3400,PAYLOAD,2022-08-19 03:56:55,15.08865364,0.0001223,53.2175,8.4422,61.6943,298.4173,-0.00027528,-4.669e-05,0.0,0 STARLINK-3400,1 51128U 22005AA  22231.16453239 -.00004669  00000-0 -27528-3 0  9993,2 51128  53.2175   8.4422 0001223  61.6943 298.4173 15.08865364 33814,6917.803000000001,95.436,540.514,538.822,0.0
51128.0,STARLINK-3400,PAYLOAD,2022-08-19 11:53:52,15.08850299,0.0001443,53.2174,6.9551,68.4248,291.6897,0.00015943,2.251e-05,0.0,0 STARLINK-3400,1 51128U 22005AA  22231.49574242  .00002251  00000-0  15943-3 0  9998,2 51128  53.2174   6.9551 0001443  68.4248 291.6897 15.08850299 32746,6917.849,95.437,540.712,538.716,0.0
51128.0,STARLINK-3400,PAYLOAD,2022-08-20 02:12:20,15.08843485,4.13e-05,53.2211,4.2785,353.7306,6.3681,0.00014473,2.017e-05,0.0,0 STARLINK-3400,1 51128U 22005AA  22232.09190324  .00002017  00000-0  14473-3 0  9997,2 51128  53.2211   4.2785 0000413 353.7306   6.3681 15.08843485 33954,6917.87,95.437,540.02,539.4490000000002,0.0
51128.0,STARLINK-3400,PAYLOAD,2022-08-20 11:44:40,15.08826822,0.0001199999999999,53.2192,2.4962,38.4055,321.7022,-6.1832e-05,-1.271e-05,0.0,0 STARLINK-3400,1 51128U 22005AA  22232.48935706 -.00001271  00000-0 -61832-4 0  9996,2 51128  53.2192   2.4962 0001200  38.4055 321.7022 15.08826822 34019,6917.920999999999,95.438,540.616,538.956,0.0
51128.0,STARLINK-3400,PAYLOAD,2022-08-20 13:20:03,15.08835003,0.0001505,53.2174,2.1977,60.5556,299.5586,5.0955e-05,5.23e-06,0.0,0 STARLINK-3400,1 51128U 22005AA  22232.55559344  .00000523  00000-0  50955-4 0  9995,2 51128  53.2174   2.1977 0001505  60.5556 299.5586 15.08835003 32906,6917.896,95.438,540.802,538.72,0.0
51128.0,STARLINK-3400,PAYLOAD,2022-08-20 19:41:35,15.08840192,0.0001534,53.2174,1.0083,62.8193,297.2955,0.00011728,1.579e-05,0.0,0 STARLINK-3400,1 51128U 22005AA  22232.82055202  .00001579  00000-0  11728-3 0  9995,2 51128  53.2174   1.0083 0001534  62.8193 297.2955 15.08840192 32940,6917.88,95.438,540.806,538.684,0.0
51128.0,STARLINK-3400,PAYLOAD,2022-08-21 02:03:10,15.08792788,0.0002198,53.217,359.8192,74.5557,285.5678,0.0023023,0.00036496,0.0,0 STARLINK-3400,1 51128U 22005AA  22233.08553887  .00036496  00000-0  23023-2 0  9992,2 51128  53.2170 359.8192 0002198  74.5557 285.5678 15.08792788 34101,6918.025,95.441,541.41,538.369,0.0
51128.0,STARLINK-3400,PAYLOAD,2022-08-21 13:10:50,15.08839645,0.00013,53.2176,357.7359,81.6874,278.4265,0.0001058,1.396e-05,0.0,0 STARLINK-3400,1 51128U 22005AA  22233.54919284  .00001396  00000-0  10580-3 0  9996,2 51128  53.2176 357.7359 0001300  81.6874 278.4265 15.08839645 34178,6917.880999999999,95.438,540.646,538.847,0.0
51128.0,STARLINK-3400,PAYLOAD,2022-08-21 17:57:00,15.08831616,0.0001521999999999,53.2174,356.8455,60.2914,299.823,0.00013891,1.923e-05,0.0,0 STARLINK-3400,1 51128U 22005AA  22233.74791877  .00001923  00000-0  13891-3 0  9998,2 51128  53.2174 356.8455 0001522  60.2914 299.8230 15.08831616 34200,6917.906,95.438,540.8240000000002,538.7180000000002,0.0
51128.0,STARLINK-3400,PAYLOAD,2022-08-22 08:15:28,15.08839353,0.0001524,53.2175,354.1691,60.0805,300.0338,0.00019247,2.776e-05,0.0,0 STARLINK-3400,1 51128U 22005AA  22234.34407674  .00002776  00000-0  19247-3 0  9992,2 51128  53.2175 354.1691 0001524  60.0805 300.0338 15.08839353 33178,6917.882,95.438,540.802,538.693,0.0
51128.0,STARLINK-3400,PAYLOAD,2022-08-22 17:47:46,15.08843594,0.0001537,53.2175,352.3854,59.1688,300.9455,0.00014129,1.962e-05,0.0,0 STARLINK-3400,1 51128U 22005AA  22234.74151388  .00001962  00000-0  14129-3 0  9994,2 51128  53.2175 352.3854 0001537  59.1688 300.9455 15.08843594 34353,6917.869000000002,95.437,540.798,538.6709999999998,0.0
51128.0,STARLINK-3400,PAYLOAD,2022-08-23 11:17:01,15.0883291,0.0001479,53.2178,349.115,56.3763,303.737,1.8887e-05,1.3e-07,0.0,0 STARLINK-3400,1 51128U 22005AA  22235.47015986  .00000013  00000-0  18887-4 0  9990,2 51128  53.2178 349.1150 0001479  56.3763 303.7370 15.08832910 34466,6917.901999999999,95.438,540.79,538.744,0.0
51128.0,STARLINK-3400,PAYLOAD,2022-08-23 17:38:34,15.08830159,0.0001503,53.2179,347.9256,57.978,302.1358,6.593300000000001e-05,7.61e-06,0.0,0 STARLINK-3400,1 51128U 22005AA  22235.73512227  .00000761  00000-0  65933-4 0  9993,2 51128  53.2179 347.9256 0001503  57.9780 302.1358 15.08830159 33386,6917.91,95.438,540.815,538.736,0.0
51128.0,STARLINK-3400,PAYLOAD,2022-08-24 11:07:48,15.08842203,0.0001483,53.2179,344.6545,54.5513,305.5617,4.569100000000002e-05,4.39e-06,0.0,0 STARLINK-3400,1 51128U 22005AA  22236.46375592  .00000439  00000-0  45691-4 0  9997,2 51128  53.2179 344.6545 0001483  54.5513 305.5617 15.08842203 33495,6917.874,95.437,540.765,538.7130000000002,0.0
51128.0,STARLINK-3400,PAYLOAD,2022-08-24 14:18:34,15.08842987,0.0001476999999999,53.218,344.0596,55.6156,304.4976,4.8518e-05,4.84e-06,0.0,0 STARLINK-3400,1 51128U 22005AA  22236.59623497  .00000484  00000-0  48518-4 0  9992,2 51128  53.2180 344.0596 0001477  55.6156 304.4976 15.08842987 33513,6917.871,95.437,540.758,538.714,0.0
51128.0,STARLINK-3400,PAYLOAD,2022-08-25 07:47:49,15.08835775,0.0001419,53.2182,340.7891,58.0027,302.1103,7.482100000000001e-05,9.03e-06,0.0,0 STARLINK-3400,1 51128U 22005AA  22237.32487916  .00000903  00000-0  74821-4 0  9990,2 51128  53.2182 340.7891 0001419  58.0027 302.1103 15.08835775 34746,6917.893,95.438,540.74,538.7769999999998,0.0
51128.0,STARLINK-3400,PAYLOAD,2022-08-25 10:58:36,15.08833076,0.0001449,53.2177,340.1938,56.8967,303.2164,4.850600000000001e-05,4.84e-06,0.0,0 STARLINK-3400,1 51128U 22005AA  22237.45736185  .00000484  00000-0  48506-4 0  9994,2 51128  53.2177 340.1938 0001449  56.8967 303.2164 15.08833076 33647,6917.901999999999,95.438,540.769,538.764,0.0
51128.0,STARLINK-3400,PAYLOAD,2022-08-25 14:09:22,15.08830959,0.0001411,53.2183,339.5993,49.3772,310.7343,2.7665e-05,1.52e-06,0.0,0 STARLINK-3400,1 51128U 22005AA  22237.58984441  .00000152  00000-0  27665-4 0  9993,2 51128  53.2183 339.5993 0001411  49.3772 310.7343 15.08830959 33668,6917.908,95.438,540.749,538.797,0.0
51128.0,STARLINK-3400,PAYLOAD,2022-08-25 17:20:08,15.08831699,0.0001472,53.2181,339.0047,53.6157,306.4971,2.2374e-05,6.8e-07,0.0,0 STARLINK-3400,1 51128U 22005AA  22237.72232477  .00000068  00000-0  22374-4 0  9992,2 51128  53.2181 339.0047 0001472  53.6157 306.4971 15.08831699 34801,6917.906,95.438,540.789,538.752,0.0
51128.0,STARLINK-3400,PAYLOAD,2022-08-26 10:49:23,15.08837211,0.0001524,53.2179,335.7336,54.7026,305.4108,1.9296e-05,1.9e-07,0.0,0 STARLINK-3400,1 51128U 22005AA  22238.45096371  .00000019  00000-0  19296-4 0  9999,2 51128  53.2179 335.7336 0001524  54.7026 305.4108 15.08837211 33791,6917.889,95.438,540.808,538.7,0.0
51128.0,STARLINK-3400,PAYLOAD,2022-08-26 15:35:32,15.08838943,0.0001541999999999,53.2176,334.8413,54.27,305.8435,2.2203e-05,6.5e-07,0.0,0 STARLINK-3400,1 51128U 22005AA  22238.64968284  .00000065  00000-0  22203-4 0  9994,2 51128  53.2176 334.8413 0001542  54.2700 305.8435 15.08838943 34946,6917.884,95.438,540.815,538.682,0.0
51128.0,STARLINK-3400,PAYLOAD,2022-08-27 10:40:09,15.08841778,0.000157,53.2182,331.2733,55.1547,304.9593,0.00014186,1.971e-05,0.0,0 STARLINK-3400,1 51128U 22005AA  22239.44455833  .00001971  00000-0  14186-3 0  9991,2 51128  53.2182 331.2733 0001570  55.1547 304.9593 15.08841778 33943,6917.875,95.437,540.826,538.654,0.0
51128.0,STARLINK-3400,PAYLOAD,2022-08-28 12:06:19,15.08846691,0.0001520999999999,53.2181,326.5152,56.7525,303.3613,0.00010144,1.327e-05,0.0,0 STARLINK-3400,1 51128U 22005AA  22240.50439554  .00001327  00000-0  10144-3 0  9997,2 51128  53.2181 326.5152 0001521  56.7525 303.3613 15.08846691 34107,6917.86,95.437,540.7769999999998,538.673,0.0
